[{"postcode":"3338","lat":"-37.700","lng":"144.540"},{"postcode":"7017","lat":"-42.780","lng":"147.360"},{"postcode":"2333","lat":"-32.390","lng":"150.470"},{"postcode":"2607","lat":"-35.380","lng":"149.100"},{"postcode":"2281","lat":"-33.080","lng":"151.650"},{"postcode":"2289","lat":"-32.930","lng":"151.730"},{"postcode":"2289","lat":"-32.930","lng":"151.730"},{"postcode":"2452","lat":"-30.340","lng":"153.080"},{"postcode":"2428","lat":"-32.350","lng":"152.540"},{"postcode":"2283","lat":"-33.060","lng":"151.580"},{"postcode":"2906","lat":"-35.520","lng":"149.080"},{"postcode":"3181","lat":"-37.850","lng":"144.990"},{"postcode":"5040","lat":"-34.960","lng":"138.530"},{"postcode":"2620","lat":"-35.580","lng":"149.230"},{"postcode":"2617","lat":"-35.240","lng":"149.070"},{"postcode":"2417","lat":null,"lng":null},{"postcode":"2262","lat":"-33.210","lng":"151.490"},{"postcode":"3147","lat":"-37.860","lng":"145.080"},{"postcode":"4500","lat":"-27.290","lng":"152.960"},{"postcode":"2158","lat":"-33.680","lng":"151.030"},{"postcode":"5094","lat":"-34.830","lng":"138.600"},{"postcode":"3338","lat":"-37.700","lng":"144.540"},{"postcode":"6027","lat":"-31.780","lng":"115.760"},{"postcode":"5092","lat":"-34.830","lng":"138.690"},{"postcode":"5086","lat":"-34.860","lng":"138.660"},{"postcode":"5131","lat":"-34.830","lng":"138.760"},{"postcode":"3189","lat":"-37.930","lng":"145.040"},{"postcode":"5046","lat":"-35.010","lng":"138.550"},{"postcode":"2000","lat":"-33.860","lng":"151.210"},{"postcode":"2280","lat":"-33.040","lng":"151.660"},{"postcode":"3141","lat":"-36.990","lng":"144.060"},{"postcode":"7885","lat":null,"lng":null}]